[{"OBJECT_NAME":"STARLINK-30568","OBJECT_ID":"2023-158A","EPOCH":"2026-03-09T22:00:01.999584","MEAN_MOTION":15.27549841,"ECCENTRICITY":0.00015759,"INCLINATION":43.0037,"RA_OF_ASC_NODE":26.1725,"ARG_OF_PERICENTER":255.5586,"MEAN_ANOMALY":331.1754,"EPHEMERIS_TYPE":0,"CLASSIFICATION_TYPE":"U","NORAD_CAT_ID":58051,"ELEMENT_SET_NO":999,"REV_AT_EPOCH":572,"BSTAR":0.0013657049,"MEAN_MOTION_DOT":0.00037476,"MEAN_MOTION_DDOT":0},{"OBJECT_NAME":"UNKNOWN","OBJECT_ID":"","EPOCH":"2026-03-07T08:06:28.518048","MEAN_MOTION":8.04822229,"ECCENTRICITY":0.3508374,"INCLINATION":64.865,"RA_OF_ASC_NODE":180.5777,"ARG_OF_PERICENTER":8.8328,"MEAN_ANOMALY":356.0567,"EPHEMERIS_TYPE":0,"CLASSIFICATION_TYPE":"U","NORAD_CAT_ID":84188,"ELEMENT_SET_NO":999,"REV_AT_EPOCH":4791,"BSTAR":0.09928,"MEAN_MOTION_DOT":0.00195299,"MEAN_MOTION_DDOT":0}]
